CSG-3                   
1 67304U 26001A   26004.28321274  .00000851  00000+0  11516-3 0  9990
2 67304  97.8602 190.3713 0003580 172.2501 187.8768 14.81517741   185
