CCSDS_OMM_VERS = 2.0
CREATION_DATE  = 
ORIGINATOR     = 

OBJECT_NAME    = CSG-3
OBJECT_ID      = 2026-001A
CENTER_NAME    = EARTH
REF_FRAME      = TEME
TIME_SYSTEM    = UTC
MEAN_ELEMENT_THEORY = SGP/SGP4

EPOCH          = 2026-01-04T06:47:49.580736
MEAN_MOTION    = 14.81517741
ECCENTRICITY   = .00035803
INCLINATION    = 97.8602
RA_OF_ASC_NODE = 190.3713
ARG_OF_PERICENTER = 172.2501
MEAN_ANOMALY   = 187.8768

EPHEMERIS_TYPE = 0
CLASSIFICATION_TYPE = U
NORAD_CAT_ID   = 67304
ELEMENT_SET_NO = 999
REV_AT_EPOCH   = 18
BSTAR          = .11515816E-3
MEAN_MOTION_DOT = .851E-5
MEAN_MOTION_DDOT = 0

